KUIPER-00016            
1 63732U 25088J   25245.43701072 -.00002628  00000+0 -31563-3 0  9996
2 63732  51.8983 224.0464 0010531 162.3972 197.7357 14.79870049 19456
KUIPER-00018            
1 63733U 25088K   25246.25002315 -.01106395  00000+0 -97124-1 0  9992
2 63733  51.8865 209.7095 0010348 183.9049 284.6606 14.99260271  3814
KUIPER-00019            
1 63734U 25088L   25246.25002315 -.01699026  00000+0 -15847+0 0  9991
2 63734  51.8873 208.6301 0008510 191.9413  90.0122 14.97308914  5497
KUIPER-00020            
1 63735U 25088M   25246.25002315 -.00997001  00000+0 -11814+0 0  9995
2 63735  51.9050 211.9680 0007843 176.2811 132.6050 14.87194073  4466
KUIPER-00021            
1 63736U 25088N   25246.25002315 -.00017367  00000+0 -20246-2 0  9996
2 63736  51.8963 212.9821 0005836 180.3044 113.2998 14.84376894  5828
KUIPER-00023            
1 63737U 25088P   25246.25002315 -.00024182  00000+0 -29748-2 0  9996
2 63737  51.8979 214.4045 0009481 192.3821 131.5634 14.82336530  5772
KUIPER-00024            
1 63738U 25088Q   25246.25002315 -.00906030  00000+0 -57344-1 0  9990
2 63738  51.8945 204.5433 0003041 147.8033 257.8156 15.11314425  4911
KUIPER-00025            
1 63739U 25088R   25246.25002315  .00005957  00000+0  71307-3 0  9994
2 63739  51.9056 210.5562 0009446 171.8851 101.0267 14.85268931  5088
